GOLIAT
1 38085U 12006J   14191.69046693  .00075949  46221-5  88300-3 0  1899
2 38085 069.4566 297.1582 0383400 324.6261 032.9993 15.05999851126813
HORYU-2
1 38340U 12025D   14191.32745883  .00002246  00000-0  36072-3 0  9045
2 38340 098.2623 148.9180 0013394 100.4094 259.8672 14.72594577115208
RS-40
1 38735U 12041C   14191.63524425  .00000024  00000-0  10000-3 0  6189
2 38735 082.4766 272.9218 0016863 199.7029 160.3403 12.42560645 88494
PROITERES
1 38756U 12047B   14191.79901427  .00000625  00000-0  10078-3 0    36
2 38756 098.2289 280.4801 0011257 311.0881 048.9354 14.75002563 98654
BEESAT-3
1 39134U 13015E   14191.76791940  .00007207  00000-0  50576-3 0  6370
2 39134 064.8647 063.8976 0029664 303.7021 056.1290 15.05515173 67211
BEESAT-2
1 39136U 13015G   14191.90808902  .00006241  00000-0  44723-3 0  6212
2 39136 064.8666 064.0064 0029601 303.5204 056.3090 15.04876182 67227
LO-75
1 39382U 13064C   14191.39469969  .00102480  00000-0  19077-2 0  3052
2 39382 040.4965 314.5196 0019541 044.2364 316.0605 15.47521758 35652
ZACUBE-1
1 39417U 13066B   14191.32287713  .00002660  00000-0  36244-3 0  3450
2 39417 097.7731 261.1481 0062349 166.9576 193.3283 14.78167532 34119
TRITON-1
1 39427U 13066M   14191.19781401  .00001704  00000-0  29262-3 0  1996
2 39427 097.7615 256.3803 0117884 176.7908 183.4169 14.65438094 33761
DELFIN3XT
1 39428U 13066N   14191.76909283  .00002930  00000-0  51137-3 0  2012
2 39428 097.7599 256.0873 0128569 176.9079 183.2997 14.63373162 33781
GOMX-1
1 39430U 13066Q   14191.72805251  .00001671  00000-0  32427-3 0  6275
2 39430 097.7532 253.8076 0156713 183.2706 176.7496 14.56873759 33646
MO-76
1 39436U 13066W   14191.73466491  .00017255  00000-0  17538-2 0  2637
2 39436 097.7763 264.9914 0026855 167.5272 192.6696 14.90584985 34387
LO-74
1 39440U 13066AA  14191.02321076  .00001869  00000-0  28201-3 0  1973
2 39440 097.7695 259.0198 0084047 170.8533 189.4289 14.73105066 33942
PUCPSAT-1
1 39442U 13066AC  14191.26192325  .00003075  00000-0  35272-3 0  1959
2 39442 097.7778 263.9362 0034917 167.5977 192.6204 14.86170854 33055
LO-78
1 39569U 98067EN  14191.77568358  .00614778  16700-3  15638-2 0  4076
2 39569 051.6374 324.6048 0009022 315.7776 188.2274 15.94771005 20773
SHINAISAT
1 39572U 14009A   14191.77062099  .00067086  00000-0  51502-3 0  1801
2 39572 065.0084 320.9755 0019024 286.6680 073.2399 15.71436354 20817
OPUSAT
1 39575U 14009D   14191.85290008  .00697612  24320-3  10422-2 0  2451
2 39575 064.9907 312.4622 0020131 291.3259 068.5773 16.04091363 20982
TEIKYOSAT
1 39576U 14009E   14191.17336727  .00090862  00000-0  58030-3 0  1824
2 39576 064.9987 321.3551 0018683 296.7840 063.1581 15.75634673 20752
CO-77
1 39577U 14009F   14191.42027467  .00199659  20560-4  78625-3 0  1970
2 39577 065.0054 317.2530 0018573 289.8379 070.0781 15.86426939 20855
STARS-II
1 39579U 14009H   14116.06110564  .20186783  77451-5  52661-3 0  1329
2 39579 064.9886 219.0071 0013010 293.8065 069.6132 16.44611049  9028
SPROUT
1 39770U 14029E   14191.08041024  .00001086  00000-0  14127-3 0   609
2 39770 097.8716 287.8827 0008750 233.8687 126.1701 14.82636902  6932
POPSAT-HIP1
1 40028U 14033U   14191.79978117  .00001914  00000-0  23014-3 0   551
2 40028 097.9852 086.4776 0013525 214.1592 145.8762 14.85081993  3086
EO-80
1 40032U 14033Y   14191.66824380  .00001940  00000-0  23449-3 0   544
2 40032 097.9808 086.3285 0012016 209.1240 150.9354 14.84851971  3077
VELOX-1
1 40057U 14034E   14191.81334084  .00002298  00000-0  35776-3 0   415
2 40057 098.2519 259.1428 0010367 245.1490 114.8647 14.73956287  1560
OBJECT C
1 40071U 14037C   14191.82540802 -.00000222  00000-0 -21970-4 0   107
2 40071 098.4040 243.5240 0007266 248.4855 111.5565 14.79492373   302
OBJECT G
1 40075U 14037G   14191.82422499 -.00003687  00000-0 -47620-3 0   121
2 40075 098.4033 243.5283 0004132 270.1457 089.9292 14.80344779   307
OBJECT H
1 40076U 14037H   14191.82417973 -.00000362  00000-0 -39849-4 0    91
2 40076 098.3972 243.5179 0004261 273.8749 086.1949 14.80382331   304
